{
    "links": {
        "self": "http://www.neowsapp.com/rest/v1/neo/3479009?api_key=iIulBulltgU6a56xZRHN4H3l9WmuAYTsLGpBGhQ2"
    },
    "id": "3479009",
    "neo_reference_id": "3479009",
    "name": "(2009 WX104)",
    "designation": "2009 WX104",
    "nasa_jpl_url": "http://ssd.jpl.nasa.gov/sbdb.cgi?sstr=3479009",
    "absolute_magnitude_h": 26.0,
    "estimated_diameter": {
        "kilometers": {
            "estimated_diameter_min": 0.0167708462,
            "estimated_diameter_max": 0.0375007522
        },
        "meters": {
            "estimated_diameter_min": 16.7708462163,
            "estimated_diameter_max": 37.5007521798
        },
        "miles": {
            "estimated_diameter_min": 0.0104209175,
            "estimated_diameter_max": 0.0233018799
        },
        "feet": {
            "estimated_diameter_min": 55.0224631002,
            "estimated_diameter_max": 123.0339677816
        }
    },
    "is_potentially_hazardous_asteroid": false,
    "close_approach_data": [
        {
            "close_approach_date": "2009-11-20",
            "close_approach_date_full": "2009-Nov-20 05:24",
            "epoch_date_close_approach": 1258694640000,
            "relative_velocity": {
                "kilometers_per_second": "13.2621099562",
                "kilometers_per_hour": "47743.5958423538",
                "miles_per_hour": "29666.0137610448"
            },
            "miss_distance": {
                "astronomical": "0.0450415061",
                "lunar": "17.5211458729",
                "kilometers": "6738113.374152007",
                "miles": "4186869.5029794166"
            },
            "orbiting_body": "Earth"
        }
    ],
    "orbital_data": {
        "orbit_id": "6",
        "orbit_determination_date": "2017-04-06 08:58:55",
        "first_observation_date": "2009-11-24",
        "last_observation_date": "2009-11-25",
        "data_arc_in_days": 1,
        "observations_used": 16,
        "orbit_uncertainty": "8",
        "minimum_orbit_intersection": ".0440254",
        "jupiter_tisserand_invariant": "4.015",
        "epoch_osculation": "2455160.5",
        "eccentricity": ".4476349332385849",
        "semi_major_axis": "1.713459280234055",
        "inclination": "17.55352740769243",
        "ascending_node_longitude": "242.1475651282916",
        "orbital_period": "819.2361518459568",
        "perihelion_distance": ".9464550497194498",
        "perihelion_argument": "134.1792473836828",
        "aphelion_distance": "2.48046351074866",
        "perihelion_time": "2455122.303538027200",
        "mean_anomaly": "16.78481385278709",
        "mean_motion": ".4394337324943782",
        "equinox": "J2000",
        "orbit_class": {
            "orbit_class_type": "APO",
            "orbit_class_description": "Near-Earth asteroid orbits which cross the Earth’s orbit similar to that of 1862 Apollo",
            "orbit_class_range": "a (semi-major axis) > 1.0 AU; q (perihelion) < 1.017 AU"
        }
    },
    "is_sentry_object": false
}